     3.03           N                   G                   RINEX VERSION / TYPE
Convert 2.6.7       NovAtel             20220606 075817 UTC PGM / RUN BY / DATE 
                                                            COMMENT             
                                                            END OF HEADER       
G01 2021 12 03 08 00 00  .494230072945D-03 -.102318153949D-10  .000000000000D+00
      .800000000000D+02 -.172156250000D+03  .368515350144D-08  .253866095310D+01
     -.887736678123D-05  .111419885652D-01  .109151005745D-04  .515368041039D+04
      .460800000000D+06 -.372529029846D-07 -.535372064784D+00 -.208616256714D-06
      .986491899302D+00  .180968750000D+03  .885452220331D+00 -.750031241812D-08
     -.122505102829D-09  .100000000000D+01  .218600000000D+04  .000000000000D+00
      .200000000000D+01  .000000000000D+00  .512227416039D-08  .800000000000D+02
      .454266000000D+06  .400000000000D+01                                      
G02 2021 11 20 02 00 00 -.642690341920D-03 -.147792889038D-11  .000000000000D+00
      .650000000000D+02 -.105000000000D+03  .437232498203D-08 -.874502875378D+00
     -.547058880329D-05  .205077363644D-01  .817701220512D-05  .515380170059D+04
      .525600000000D+06 -.307336449623D-06 -.373003344538D+00  .106170773506D-06
      .964840268464D+00  .230093750000D+03 -.147925390029D+01 -.832070373357D-08
     -.144291724615D-09  .100000000000D+01  .218400000000D+04  .000000000000D+00
      .200000000000D+01  .000000000000D+00 -.176951289177D-07  .650000000000D+02
      .521406000000D+06  .400000000000D+01                                      
G03 2021 12 03 08 00 00 -.300598330796D-04 -.111413100967D-10  .000000000000D+00
      .470000000000D+02  .312500000000D-01  .427374944739D-08  .136322344960D+01
     -.111758708954D-07  .385319523048D-02  .106524676085D-04  .515372314453D+04
      .460800000000D+06 -.745058059692D-07  .499792649227D+00  .800937414169D-07
      .971785900681D+00  .178781250000D+03  .998853080160D+00 -.777496671571D-08
      .709315260113D-09  .100000000000D+01  .218600000000D+04  .000000000000D+00
      .200000000000D+01  .000000000000D+00  .186264514923D-08  .470000000000D+02
      .457176000000D+06  .400000000000D+01                                      
G04 2021 11 24 10 00 00 -.201058108360D-03  .102318153949D-11  .000000000000D+00
      .215000000000D+03 -.625000000000D+00  .460447750926D-08 -.116583184002D+01
     -.132247805595D-06  .153388048057D-02  .771507620811D-05  .515367068672D+04
      .295200000000D+06 -.428408384323D-07  .170765423831D+01 -.707805156708D-07
      .960409332447D+00  .230750000000D+03 -.313676749626D+01 -.788568561332D-08
      .241795786051D-09  .100000000000D+01  .218500000000D+04  .000000000000D+00
      .200000000000D+01  .000000000000D+00 -.419095158577D-08  .471000000000D+03
      .289806000000D+06  .400000000000D+01                                      
G05 2021 11 24 03 59 44 -.621066428721D-04 -.125055521494D-11  .000000000000D+00
      .800000000000D+01 -.773437500000D+02  .431625121776D-08  .274306221219D+01
     -.407919287682D-05  .598686991725D-02  .839494168758D-05  .515362596512D+04
      .273584000000D+06  .409781932831D-07  .587300919669D+00 -.540167093277D-07
      .958607526468D+00  .216750000000D+03  .101623041986D+01 -.778818155188D-08
      .120004998690D-09  .100000000000D+01  .218500000000D+04  .000000000000D+00
      .200000000000D+01  .000000000000D+00 -.111758708954D-07  .800000000000D+01
      .270066000000D+06  .400000000000D+01                                      
G06 2021 10 25 01 59 44  .102071091533D-03  .852651282912D-11  .000000000000D+00
      .140000000000D+02 -.849062500000D+02  .379765818771D-08 -.162656619891D+01
     -.444240868092D-05  .229917513207D-02  .768154859543D-05  .515360412598D+04
      .935840000000D+05 -.465661287308D-07  .848713094021D-01  .186264514923D-08
      .985614893079D+00  .245625000000D+03 -.103764136995D+01 -.774496546604D-08
     -.100361323309D-09  .100000000000D+01  .218100000000D+04  .000000000000D+00
      .200000000000D+01  .000000000000D+00  .419095158577D-08  .140000000000D+02
      .896760000000D+05  .400000000000D+01                                      
G07 2021 11 12 02 00 00  .276709441096D-03  .545696821064D-11  .000000000000D+00
      .570000000000D+02  .363437500000D+02  .483698719422D-08 -.200180170335D+01
      .166520476341D-05  .153087143553D-01  .762753188610D-05  .515372010040D+04
      .439200000000D+06  .189989805222D-06  .297687686415D+01 -.109896063805D-06
      .951525548824D+00  .222812500000D+03 -.230209270164D+01 -.792140138673D-08
      .417517391275D-09  .100000000000D+01  .218300000000D+04  .000000000000D+00
      .200000000000D+01  .000000000000D+00 -.111758708954D-07  .570000000000D+02
      .435876000000D+06  .400000000000D+01                                      
G08 2021 10 22 14 00 00 -.410643406212D-04 -.147792889038D-11  .000000000000D+00
      .530000000000D+02 -.766250000000D+02  .459340561950D-08  .238945035443D+00
     -.398606061935D-05  .662896828726D-02  .259093940258D-05  .515366875648D+04
      .482400000000D+06  .109896063805D-06 -.861855945657D+00  .409781932831D-07
      .965836177742D+00  .331031250000D+03  .529627619973D-01 -.846499545818D-08
     -.221794952936D-09  .100000000000D+01  .218000000000D+04  .000000000000D+00
      .200000000000D+01  .000000000000D+00  .512227416039D-08  .530000000000D+02
      .478116000000D+06  .400000000000D+01                                      
G09 2021 11 04 12 00 00 -.361872371286D-03  .113686837722D-12  .000000000000D+00
      .440000000000D+02 -.484375000000D+02  .509449792057D-08 -.244864222892D-01
     -.258907675743D-05  .233035231940D-02  .673718750477D-05  .515367353439D+04
      .388800000000D+06 -.745058059692D-08  .203064169670D+01  .316649675369D-07
      .953428397091D+00  .244687500000D+03  .182005107844D+01 -.838427781025D-08
     -.670385067086D-09  .100000000000D+01  .218200000000D+04  .000000000000D+00
      .200000000000D+01  .000000000000D+00  .139698386192D-08  .440000000000D+02
      .385866000000D+06  .400000000000D+01                                      
G10 2021 12 03 08 00 00 -.259931199253D-03 -.875388650456D-11  .000000000000D+00
      .430000000000D+02  .156875000000D+02  .439196865741D-08  .565239962890D+00
      .918284058571D-06  .728500285186D-02  .101458281279D-04  .515367488670D+04
      .460800000000D+06 -.260770320892D-07  .496981450255D+00  .117346644402D-06
      .971629988723D+00  .188812500000D+03 -.256692313477D+01 -.792247285994D-08
      .595381942905D-09  .100000000000D+01  .218600000000D+04  .000000000000D+00
      .200000000000D+01  .000000000000D+00  .232830643654D-08  .430000000000D+02
      .453606000000D+06  .400000000000D+01                                      
G11 2021 10 13 04 00 00  .217095948756D-04  .682121026330D-12  .000000000000D+00
      .174000000000D+03 -.443125000000D+02  .464233622908D-08  .138777449484D+01
     -.238418579102D-05  .466919736937D-03  .294670462608D-05  .515371712875D+04
      .273600000000D+06  .372529029846D-08  .388600865917D+00  .409781932831D-07
      .960968429015D+00  .323375000000D+03  .228280110730D+01 -.838284917932D-08
     -.921466954226D-10  .100000000000D+01  .217900000000D+04  .000000000000D+00
      .204800000000D+04  .100000000000D+01 -.838190317154D-08  .430000000000D+03
      .266436000000D+06  .400000000000D+01                                      
G12 2021 12 03 08 00 00 -.135230366141D-03 -.557065504836D-11  .000000000000D+00
      .290000000000D+02  .146562500000D+03  .412517182996D-08  .120948999831D+01
      .758096575737D-05  .841025111731D-02  .650621950626D-05  .515365320396D+04
      .460800000000D+06 -.189989805222D-06 -.257065842105D+01  .931322574615D-08
      .971592068424D+00  .258531250000D+03  .122958964569D+01 -.816534011919D-08
      .326799326789D-09  .100000000000D+01  .218600000000D+04  .000000000000D+00
      .200000000000D+01  .000000000000D+00 -.125728547573D-07  .290000000000D+02
      .453666000000D+06  .400000000000D+01                                      
G13 2021 11 24 04 00 00  .219209119678D-03  .568434188608D-11  .000000000000D+00
      .500000000000D+02 -.234375000000D+01  .445304262996D-08  .179219054825D+01
     -.156462192535D-06  .572419073433D-02  .710785388947D-05  .515367514992D+04
      .273600000000D+06 -.115483999252D-06  .180709346881D+01 -.894069671631D-07
      .967937314314D+00  .246437500000D+03  .978306682469D+00 -.789354308347D-08
      .294297972978D-09  .100000000000D+01  .218500000000D+04  .000000000000D+00
      .200000000000D+01  .000000000000D+00 -.111758708954D-07  .500000000000D+02
      .270996000000D+06  .400000000000D+01                                      
G14 2021 09 02 02 00 00  .104531645775D-04 -.829913915368D-11  .000000000000D+00
      .143000000000D+03  .500312500000D+02  .460697761340D-08  .101654141722D+01
      .258162617683D-05  .107394170482D-02  .850297510624D-05  .515364971352D+04
      .352800000000D+06  .149011611938D-07 -.969370797019D+00 -.763684511185D-07
      .955676801238D+00  .210250000000D+03  .308533543373D+01 -.801283376669D-08
     -.468590947265D-09  .100000000000D+01  .217300000000D+04  .000000000000D+00
      .200000000000D+01  .000000000000D+00 -.791624188423D-08  .911000000000D+03
      .350766000000D+06  .400000000000D+01                                      
